{
    "links": {
        "self": "http://www.neowsapp.com/rest/v1/neo/3346459?api_key=iIulBulltgU6a56xZRHN4H3l9WmuAYTsLGpBGhQ2"
    },
    "id": "3346459",
    "neo_reference_id": "3346459",
    "name": "(2006 SR134)",
    "designation": "2006 SR134",
    "nasa_jpl_url": "http://ssd.jpl.nasa.gov/sbdb.cgi?sstr=3346459",
    "absolute_magnitude_h": 23.1,
    "estimated_diameter": {
        "kilometers": {
            "estimated_diameter_min": 0.063760979,
            "estimated_diameter_max": 0.1425738833
        },
        "meters": {
            "estimated_diameter_min": 63.7609789875,
            "estimated_diameter_max": 142.5738833281
        },
        "miles": {
            "estimated_diameter_min": 0.0396192233,
            "estimated_diameter_max": 0.0885912765
        },
        "feet": {
            "estimated_diameter_min": 209.1895703015,
            "estimated_diameter_max": 467.7620993781
        }
    },
    "is_potentially_hazardous_asteroid": false,
    "close_approach_data": [
        {
            "close_approach_date": "1988-06-02",
            "close_approach_date_full": "1988-Jun-02 09:51",
            "epoch_date_close_approach": 581248260000,
            "relative_velocity": {
                "kilometers_per_second": "17.5632328493",
                "kilometers_per_hour": "63227.6382575441",
                "miles_per_hour": "39287.195560639"
            },
            "miss_distance": {
                "astronomical": "0.3530075561",
                "lunar": "137.3199393229",
                "kilometers": "52809178.486465507",
                "miles": "32814101.9013657166"
            },
            "orbiting_body": "Earth"
        },
        {
            "close_approach_date": "2006-08-05",
            "close_approach_date_full": "2006-Aug-05 09:54",
            "epoch_date_close_approach": 1154771640000,
            "relative_velocity": {
                "kilometers_per_second": "6.5484376347",
                "kilometers_per_hour": "23574.3754850962",
                "miles_per_hour": "14648.2001451699"
            },
            "miss_distance": {
                "astronomical": "0.0282387885",
                "lunar": "10.9848887265",
                "kilometers": "4224462.610980495",
                "miles": "2624959.345481031"
            },
            "orbiting_body": "Earth"
        },
        {
            "close_approach_date": "2019-05-29",
            "close_approach_date_full": "2019-May-29 11:01",
            "epoch_date_close_approach": 1559127660000,
            "relative_velocity": {
                "kilometers_per_second": "20.1431655618",
                "kilometers_per_hour": "72515.39602234",
                "miles_per_hour": "45058.2470451034"
            },
            "miss_distance": {
                "astronomical": "0.4404263242",
                "lunar": "171.3258401138",
                "kilometers": "65886839.992249454",
                "miles": "40940183.9496283052"
            },
            "orbiting_body": "Earth"
        },
        {
            "close_approach_date": "2024-09-27",
            "close_approach_date_full": "2024-Sep-27 11:11",
            "epoch_date_close_approach": 1727435460000,
            "relative_velocity": {
                "kilometers_per_second": "19.7917632426",
                "kilometers_per_hour": "71250.3476732959",
                "miles_per_hour": "44272.1951973321"
            },
            "miss_distance": {
                "astronomical": "0.4291364674",
                "lunar": "166.9340858186",
                "kilometers": "64197901.462364438",
                "miles": "39890726.2111597244"
            },
            "orbiting_body": "Earth"
        }
    ],
    "orbital_data": {
        "orbit_id": "14",
        "orbit_determination_date": "2017-04-06 09:08:01",
        "first_observation_date": "2006-09-11",
        "last_observation_date": "2006-10-29",
        "data_arc_in_days": 48,
        "observations_used": 33,
        "orbit_uncertainty": "7",
        "minimum_orbit_intersection": ".0269823",
        "jupiter_tisserand_invariant": "3.831",
        "epoch_osculation": "2459000.5",
        "eccentricity": ".4622208666906317",
        "semi_major_axis": "1.882348920971374",
        "inclination": "1.596556778185595",
        "ascending_node_longitude": "45.10252866645159",
        "orbital_period": "943.2973643251225",
        "perihelion_distance": "1.01228797130581",
        "perihelion_argument": "262.5270646694958",
        "aphelion_distance": "2.752409870636939",
        "perihelion_time": "2458665.085766464430",
        "mean_anomaly": "128.007485910018",
        "mean_motion": ".3816399935110178",
        "equinox": "J2000",
        "orbit_class": {
            "orbit_class_type": "APO",
            "orbit_class_description": "Near-Earth asteroid orbits which cross the Earth’s orbit similar to that of 1862 Apollo",
            "orbit_class_range": "a (semi-major axis) > 1.0 AU; q (perihelion) < 1.017 AU"
        }
    },
    "is_sentry_object": false
}